NORAD_CAT_ID,OBJECT_NAME,OBJECT_TYPE,EPOCH,MEAN_MOTION,ECCENTRICITY,INCLINATION,RA_OF_ASC_NODE,ARG_OF_PERICENTER,MEAN_ANOMALY,BSTAR,MEAN_MOTION_DOT,MEAN_MOTION_DDOT,TLE_LINE0,TLE_LINE1,TLE_LINE2,SEMIMAJOR_AXIS,PERIOD,APOGEE,PERIGEE,DECAYED
56498.0,STARLINK-5522,PAYLOAD,2023-12-13 11:31:12,14.98331817,0.0002863,69.9991,4.8793,266.3425,93.7407,2.8589e-05,2.48e-06,0.0,0 STARLINK-5522,1 56498U 23064BC  23347.48000698  .00000248  00000-0  28589-4 0  9991,2 56498  69.9991   4.8793 0002863 266.3425  93.7407 14.98331817 33826,6950.187,96.107,574.042,570.062,0.0
56498.0,STARLINK-5522,PAYLOAD,2023-12-14 03:32:33,14.98329386,0.0002793,69.9992,3.1962,264.9249,95.1592,-9.3261e-06,-2.04e-06,0.0,0 STARLINK-5522,1 56498U 23064BC  23348.14760891 -.00000204  00000-0 -93261-5 0  9997,2 56498  69.9992   3.1962 0002793 264.9249  95.1592 14.98329386 34287,6950.195,96.107,574.001,570.119,0.0
56498.0,STARLINK-5522,PAYLOAD,2023-12-14 11:33:13,14.98329618,0.0002788,69.9992,2.3545,264.6877,95.3964,-5.996e-06,-1.65e-06,0.0,0 STARLINK-5522,1 56498U 23064BC  23348.48140861 -.00000165  00000-0 -59960-5 0  9997,2 56498  69.9992   2.3545 0002788 264.6877  95.3964 14.98329618 33971,6950.194,96.107,573.997,570.121,0.0
56498.0,STARLINK-5522,PAYLOAD,2023-12-15 05:10:42,14.98331125,0.0002773,69.9992,0.5029,263.9831,96.1012,-1.0214e-05,-2.15e-06,0.0,0 STARLINK-5522,1 56498U 23064BC  23349.21576706 -.00000215  00000-0 -10214-4 0  9994,2 56498  69.9992   0.5029 0002773 263.9831  96.1012 14.98331125 34446,6950.189,96.107,573.982,570.127,0.0
56498.0,STARLINK-5522,PAYLOAD,2023-12-15 09:59:06,14.98330292,0.0002673,69.9997,359.999,257.5643,102.5217,-7.8634e-06,-1.87e-06,0.0,0 STARLINK-5522,1 56498U 23064BC  23349.41604739 -.00000187  00000-0 -78634-5 0  9993,2 56498  69.9997 359.9990 0002673 257.5643 102.5217 14.98330292 34115,6950.192,96.107,573.915,570.199,0.0
56498.0,STARLINK-5522,PAYLOAD,2023-12-16 10:01:07,14.98324748,0.0002721,69.9994,357.4732,260.4112,99.6739,-3.1998e-05,-4.75e-06,0.0,0 STARLINK-5522,1 56498U 23064BC  23350.41745268 -.00000475  00000-0 -31998-4 0  9999,2 56498  69.9994 357.4732 0002721 260.4112  99.6739 14.98324748 34627,6950.209,96.107,573.965,570.183,0.0
56498.0,STARLINK-5522,PAYLOAD,2023-12-17 10:03:08,14.98326327,0.0002695,69.9997,354.9489,253.6752,106.4111,-2.7042e-05,-4.16e-06,0.0,0 STARLINK-5522,1 56498U 23064BC  23351.41885326 -.00000416  00000-0 -27042-4 0  9990,2 56498  69.9997 354.9489 0002695 253.6752 106.4111 14.98326327 34777,6950.204,96.107,573.942,570.196,0.0
56498.0,STARLINK-5522,PAYLOAD,2023-12-18 03:40:36,14.98334533,0.0002942,69.999,353.096,263.4689,96.6135,9.5597e-05,1.048e-05,0.0,0 STARLINK-5522,1 56498U 23064BC  23352.15320429  .00001048  00000-0  95597-4 0  9990,2 56498  69.9990 353.0960 0002942 263.4689  96.6135 14.98334533 34883,6950.179,96.107,574.089,569.999,0.0
56498.0,STARLINK-5522,PAYLOAD,2023-12-18 10:05:08,14.98337442,0.000287,69.9991,352.4227,261.3474,98.736,0.00012591,1.41e-05,0.0,0 STARLINK-5522,1 56498U 23064BC  23352.42024052  .00001410  00000-0  12591-3 0  9998,2 56498  69.9991 352.4227 0002870 261.3474  98.7360 14.98337442 34562,6950.17,96.107,574.03,570.04,0.0
56498.0,STARLINK-5522,PAYLOAD,2023-12-19 03:42:38,14.98323928,0.000269,69.9997,350.5718,250.5575,109.5293,-2.7877e-05,-4.25e-06,0.0,0 STARLINK-5522,1 56498U 23064BC  23353.15461299 -.00000425  00000-0 -27877-4 0  9998,2 56498  69.9997 350.5718 0002690 250.5575 109.5293 14.98323928 35037,6950.212,96.107,573.946,570.207,0.0
56498.0,STARLINK-5522,PAYLOAD,2023-12-19 10:07:10,14.98329159,0.0003012,69.9987,349.8978,262.1561,97.9256,-2.5854e-05,-4.01e-06,0.0,0 STARLINK-5522,1 56498U 23064BC  23353.42165017 -.00000401  00000-0 -25854-4 0  9994,2 56498  69.9987 349.8978 0003012 262.1561  97.9256 14.98329159 34713,6950.195,96.107,574.154,569.967,0.0
56498.0,STARLINK-5522,PAYLOAD,2023-12-20 03:44:39,14.98334121,0.0002531,69.9997,348.0456,256.1717,103.9161,-5.4075e-05,-7.38e-06,0.0,0 STARLINK-5522,1 56498U 23064BC  23354.15600784 -.00000738  00000-0 -54075-4 0  9990,2 56498  69.9997 348.0456 0002531 256.1717 103.9161 14.98334121 35187,6950.18,96.107,573.804,570.286,0.0
56498.0,STARLINK-5522,PAYLOAD,2023-12-20 10:09:11,14.98336013,0.0002721,69.9993,347.3724,258.9609,101.1244,-4.1887e-05,-5.93e-06,0.0,0 STARLINK-5522,1 56498U 23064BC  23354.42304556 -.00000593  00000-0 -41887-4 0  9994,2 56498  69.9993 347.3724 0002721 258.9609 101.1244 14.98336013 34862,6950.174,96.107,573.93,570.148,0.0
56498.0,STARLINK-5522,PAYLOAD,2023-12-21 03:46:39,14.983286,0.0002616,69.9995,345.5206,258.4575,101.6291,6.0575e-05,6.3e-06,0.0,0 STARLINK-5522,1 56498U 23064BC  23355.15740684  .00000630  00000-0  60575-4 0  9996,2 56498  69.9995 345.5206 0002616 258.4575 101.6291 14.98328600 35332,6950.197,96.107,573.88,570.244,0.0
56498.0,STARLINK-5522,PAYLOAD,2023-12-21 08:35:04,14.98328607,0.000247,69.9996,345.0156,248.9003,111.1892,0.00011146,1.237e-05,0.0,0 STARLINK-5522,1 56498U 23064BC  23355.35768542  .00001237  00000-0  11146-3 0  9994,2 56498  69.9996 345.0156 0002470 248.9003 111.1892 14.98328607 35004,6950.197,96.107,573.779,570.345,0.0
56498.0,STARLINK-5522,PAYLOAD,2023-12-22 03:48:41,14.9832605,0.0002509,69.9999,342.9963,249.5152,110.5738,-4.5785e-05,-6.39e-06,0.0,0 STARLINK-5522,1 56498U 23064BC  23356.15881155 -.00000639  00000-0 -45785-4 0  9993,2 56498  69.9999 342.9963 0002509 249.5152 110.5738 14.98326050 35488,6950.205,96.107,573.814,570.326,0.0
56498.0,STARLINK-5522,PAYLOAD,2023-12-22 08:37:05,14.98325967,0.0002503,70.0,342.4915,249.6018,110.4872,-4.4824e-05,-6.28e-06,0.0,0 STARLINK-5522,1 56498U 23064BC  23356.35909201 -.00000628  00000-0 -44824-4 0  9999,2 56498  70.0000 342.4915 0002503 249.6018 110.4872 14.98325967 35150,6950.205,96.107,573.81,570.331,0.0
56498.0,STARLINK-5522,PAYLOAD,2023-12-23 03:50:41,14.9833228,0.0002555,70.0,340.4715,247.42,112.6689,-1.0577e-05,-2.19e-06,0.0,0 STARLINK-5522,1 56498U 23064BC  23357.16020669 -.00000219  00000-0 -10577-4 0  9995,2 56498  70.0000 340.4715 0002555 247.4200 112.6689 14.98332280 35631,6950.186,96.107,573.827,570.275,0.0
56498.0,STARLINK-5522,PAYLOAD,2023-12-23 08:39:05,14.98333396,0.0002592,69.9993,339.965,259.8383,100.2484,7.4506e-06,-4e-08,0.0,0 STARLINK-5522,1 56498U 23064BC  23357.36048594 -.00000004  00000-0  74506-5 0  9998,2 56498  69.9993 339.9650 0002592 259.8383 100.2484 14.98333396 35309,6950.182,96.107,573.849,570.246,0.0
56498.0,STARLINK-5522,PAYLOAD,2023-12-24 03:52:43,14.98325466,0.0002695,69.9995,337.9445,262.8126,97.2727,5.9145e-05,6.13e-06,0.0,0 STARLINK-5522,1 56498U 23064BC  23358.16160923  .00000613  00000-0  59145-4 0  9994,2 56498  69.9995 337.9445 0002695 262.8126  97.2727 14.98325466 35780,6950.207,96.107,573.945,570.199,0.0
56498.0,STARLINK-5522,PAYLOAD,2023-12-24 08:41:06,14.98330205,0.0002576,69.9997,337.4404,259.4419,100.645,8.2407e-05,8.9e-06,0.0,0 STARLINK-5522,1 56498U 23064BC  23358.36188569  .00000890  00000-0  82407-4 0  9996,2 56498  69.9997 337.4404 0002576 259.4419 100.6450 14.98330205 35450,6950.192,96.107,573.848,570.267,0.0
56498.0,STARLINK-5522,PAYLOAD,2023-12-25 03:54:43,14.98329469,0.0002555,70.0,335.4203,266.841,93.2457,3.7741e-05,3.57e-06,0.0,0 STARLINK-5522,1 56498U 23064BC  23359.16300655  .00000357  00000-0  37741-4 0  9996,2 56498  70.0000 335.4203 0002555 266.8410  93.2457 14.98329469 35930,6950.195,96.107,573.835,570.284,0.0
56498.0,STARLINK-5522,PAYLOAD,2023-12-25 08:43:07,14.98324092,0.0002486,70.0001,334.9151,265.1172,94.9703,0.00015571,1.765e-05,0.0,0 STARLINK-5522,1 56498U 23064BC  23359.36328695  .00001765  00000-0  15571-3 0  9992,2 56498  70.0001 334.9151 0002486 265.1172  94.9703 14.98324092 35600,6950.211,96.107,573.804,570.348,0.0
56498.0,STARLINK-5522,PAYLOAD,2023-12-26 08:45:08,14.98331347,0.0002498,70.0001,332.3904,262.8177,97.2698,2.9031e-06,-5.8e-07,0.0,0 STARLINK-5522,1 56498U 23064BC  23360.36468499 -.00000058  00000-0  29031-5 0  9994,2 56498  70.0001 332.3904 0002498 262.8177  97.2698 14.98331347 36117,6950.189,96.107,573.79,570.318,0.0
56498.0,STARLINK-5522,PAYLOAD,2023-12-27 07:11:01,14.98330055,0.0002473,70.0002,330.0339,259.5935,100.4946,1.8501e-06,-7.1e-07,0.0,0 STARLINK-5522,1 56498U 23064BC  23361.29932452 -.00000071  00000-0  18501-5 0  9997,2 56498  70.0002 330.0339 0002473 259.5935 100.4946 14.98330055 35895,6950.193,96.107,573.777,570.339,0.0
56498.0,STARLINK-5522,PAYLOAD,2023-12-27 21:36:14,14.98326253,0.0002439,70.0003,328.5188,259.5572,100.5313,-1.8789e-05,-3.17e-06,0.0,0 STARLINK-5522,1 56498U 23064BC  23361.90016776 -.00000317  00000-0 -18789-4 0  9998,2 56498  70.0003 328.5188 0002439 259.5572 100.5313 14.98326253 35983,6950.204,96.107,573.765,570.374,0.0
56498.0,STARLINK-5522,PAYLOAD,2023-12-28 04:00:47,14.98304165,0.0002771,70.0001,327.8445,265.6891,94.3952,0.00026848,3.11e-05,0.0,0 STARLINK-5522,1 56498U 23064BC  23362.16721461  .00003110  00000-0  26848-3 0  9997,2 56498  70.0001 327.8445 0002771 265.6891  94.3952 14.98304165 36382,6950.273,96.109,574.064,570.212,0.0
56498.0,STARLINK-5522,PAYLOAD,2023-12-28 07:13:03,14.9830074,0.000235,70.0012,327.5085,259.1491,100.9404,0.00033393,3.891e-05,0.0,0 STARLINK-5522,1 56498U 23064BC  23362.30073741  .00003891  00000-0  33393-3 0  9993,2 56498  70.0012 327.5085 0002350 259.1491 100.9404 14.98300740 36042,6950.283,96.109,573.782,570.515,0.0
56498.0,STARLINK-5522,PAYLOAD,2023-12-28 21:38:15,14.98326175,0.0002238,70.0029,325.9975,244.1946,115.8983,4.5055e-05,4.45e-06,0.0,0 STARLINK-5522,1 56498U 23064BC  23362.90156758  .00000445  00000-0  45055-4 0  9990,2 56498  70.0029 325.9975 0002238 244.1946 115.8983 14.98326175 36131,6950.205,96.107,573.625,570.514,0.0
56498.0,STARLINK-5522,PAYLOAD,2023-12-29 04:02:47,14.98328352,0.0002459,70.0011,325.3224,246.9958,113.0942,1.2844e-05,6e-07,0.0,0 STARLINK-5522,1 56498U 23064BC  23363.16860641  .00000060  00000-0  12844-4 0  9995,2 56498  70.0011 325.3224 0002459 246.9958 113.0942 14.98328352 36539,6950.198,96.107,573.772,570.354,0.0
